{"spkid": "20458418", "covariance": {"data": [["1.548694827673289E-13", "-2.908129823212916E-13", "2.589287910066806E-11", "-2.22034410673127E-12", "-1.479407850021185E-12", "-1.700361420989383E-12"], ["-2.908129823212916E-13", "5.461965184729229E-13", "-4.856914172676979E-11", "4.175191234182481E-12", "2.750174813582502E-12", "3.207113984125016E-12"], ["2.589287910066806E-11", "-4.856914172676979E-11", "5.384164572395215E-9", "-4.126830029290243E-10", "2.93745232461702E-10", "-3.293534808877842E-10"], ["-2.22034410673127E-12", "4.175191234182481E-12", "-4.126830029290243E-10", "2.790503345975964E-10", "-2.028252557772945E-10", "-4.152406624463814E-11"], ["-1.479407850021185E-12", "2.750174813582502E-12", "2.93745232461702E-10", "-2.028252557772945E-10", "5.572486006996682E-10", "3.05678228405604E-11"], ["-1.700361420989383E-12", "3.207113984125016E-12", "-3.293534808877842E-10", "-4.152406624463814E-11", "3.05678228405604E-11", "3.795378080366062E-10"]], "elements": [{"title": "eccentricity", "value": ".5372537717284593", "units": null, "name": "e", "sigma": 3.93534601740849e-07, "label": "e"}, {"name": "q", "sigma": 7.39051093276319e-07, "title": "perihelion distance", "value": ".8580743665172775", "units": "au", "label": "q"}, {"value": "2456399.641624692197", "title": "time of perihelion passage", "units": "TDB", "name": "tp", "sigma": 7.33768667387428e-05, "label": "tp"}, {"label": "node", "title": "longitude of the ascending node", "value": "124.8543522612832", "units": "deg", "sigma": 1.67047997473061e-05, "name": "om"}, {"label": "peri", "units": "deg", "value": "237.6852111261225", "title": "argument of perihelion", "sigma": 2.36061136297288e-05, "name": "w"}, {"name": "i", "sigma": 1.9481730108915e-05, "title": "inclination", "value": "38.52129102845489", "units": "deg", "label": "i"}], "labels": ["e", "q", "tp", "node", "peri", "i"], "epoch": "2456309.5"}, "elements": [{"label": "e", "sigma": "3.9342E-7", "name": "e", "title": "eccentricity", "value": ".5376459084911474", "units": null}, {"label": "a", "title": "semi-major axis", "value": "1.854759560093125", "units": "au", "name": "a", "sigma": "3.0342E-8"}, {"name": "q", "sigma": "7.3922E-7", "title": "perihelion distance", "value": ".8575556713742161", "units": "au", "label": "q"}, {"title": "inclination; angle with respect to x-y ecliptic plane", "value": "38.49934840001899", "units": "deg", "name": "i", "sigma": "1.9499E-5", "label": "i"}, {"units": "deg", "value": "124.7505366791179", "title": "longitude of the ascending node", "sigma": "1.6734E-5", "name": "om", "label": "node"}, {"title": "argument of perihelion", "value": "237.7466530313853", "units": "deg", "name": "w", "sigma": "2.3576E-5", "label": "peri"}, {"title": "mean anomaly", "value": "73.9612325555826", "units": "deg", "sigma": "3.8478E-5", "name": "ma", "label": "M"}, {"label": "tp", "sigma": "9.5013E-5", "name": "tp", "units": "TDB", "title": "time of perihelion passage", "value": "2461010.946637189735"}, {"value": "922.6348487420506", "title": "sidereal orbital period", "units": "d", "name": "per", "sigma": "2.264E-5", "label": "period"}, {"title": "mean motion", "value": ".3901868658991532", "units": "deg/d", "name": "n", "sigma": "9.5745E-9", "label": "n"}, {"label": "Q", "name": "ad", "sigma": "4.6655E-8", "units": "au", "title": "aphelion distance", "value": "2.851963448812034"}], "epoch": "2461200.5"}